ONEWEB-0597             
1 54663U 22166X   26154.28383070  .00000046  00000+0  80621-4 0  9990
2 54663  87.9269 246.7558 0002206 101.9364 258.2018 13.21825651169701
ONEWEB-0600             
1 54664U 22166Y   26154.26530783  .00000042  00000+0  69546-4 0  9993
2 54664  87.9255 246.7495 0001905  97.7006 262.4345 13.21827862169679
ONEWEB-0601             
1 54665U 22166Z   26154.63538331 -.00000056  00000+0 -16799-3 0  9990
2 54665  87.9255 246.6910 0002165  94.8350 265.3031 13.21824169169918
ONEWEB-0602             
1 54666U 22166AA  26154.29811978  .00000045  00000+0  78321-4 0  9990
2 54666  87.9258 246.7646 0001881  94.4677 265.6672 13.21825212169713
ONEWEB-0603             
1 54667U 22166AB  26154.30402229  .00002378  00000+0  57253-2 0  9998
2 54667  87.9268 246.7191 0002031  99.4752 260.6612 13.21813952169646
ONEWEB-0604             
1 54668U 22166AC  26154.29224096  .00000033  00000+0  48083-4 0  9990
2 54668  87.9267 246.7368 0001950 102.2293 257.9060 13.21826652169607
ONEWEB-0605             
1 54669U 22166AD  26154.28551430  .00000112  00000+0  23902-3 0  9995
2 54669  87.9259 246.7530 0002649  97.5133 262.6302 13.21824522169678
ONEWEB-0606             
1 54670U 22166AE  26154.30738117  .00000066  00000+0  12719-3 0  9991
2 54670  87.9259 246.7613 0001942 104.5254 255.6096 13.21826193169735
ONEWEB-0607             
1 54671U 22166AF  26154.27371404  .00000100  00000+0  21145-3 0  9992
2 54671  87.9264 246.7375 0002017  95.9162 264.2202 13.21828047169704
ONEWEB-0608             
1 54672U 22166AG  26154.28046464  .00000059  00000+0  11022-3 0  9995
2 54672  87.9271 246.7328 0002502  95.8878 264.2542 13.21826954169716
ONEWEB-0610             
1 54673U 22166AH  26154.63874410 -.00000072  00000+0 -20617-3 0  9992
2 54673  87.9257 246.6764 0002388  86.2508 273.8899 13.21827712169668
ONEWEB-0611             
1 54674U 22166AJ  26154.63201925  .00000136  00000+0  29709-3 0  9998
2 54674  87.9255 246.6741 0001979 103.9759 256.1595 13.21828213169655
ONEWEB-0612             
1 54675U 22166AK  26154.26699263  .00000058  00000+0  10944-3 0  9998
2 54675  87.9266 246.7404 0002153  97.5243 262.6136 13.21824388169591
ONEWEB-0615             
1 54676U 22166AL  26154.62530689 -.00000031  00000+0 -10716-3 0  9995
2 54676  87.9258 246.6853 0001723 101.3617 258.7711 13.21825594169653
ONEWEB-0655             
1 54677U 22166AM  26154.29897182  .00000029  00000+0  37725-4 0  9998
2 54677  87.9257 246.7519 0001917  92.5920 267.5434 13.21825554169607
ONEWEB-0659             
1 54678U 22166AN  26154.61855314  .00000057  00000+0  10574-3 0  9999
2 54678  87.9259 246.6882 0002024 102.2588 257.8773 13.21828332169730
ONEWEB-0685             
1 54679U 22166AP  26154.31603956  .00000009  00000+0 -89970-5 0  9996
2 54679  87.9254 246.7408 0002054  92.8094 267.3275 13.21819777169589
ONEWEB-0712             
1 54680U 22166AQ  26154.60855479  .00000016  00000+0  75940-5 0  9998
2 54680  87.9107 231.4700 0001763  86.2258 273.9075 13.16593689170273
ONEWEB-0714             
1 54681U 22166AR  26154.62362238 -.00000574  00000+0 -14224-2 0  9993
2 54681  87.9260 246.6762 0001918  94.1489 265.9864 13.21820229169742
ONEWEB-0532             
1 55140U 23004A   26154.59263519  .00000114  00000+0  26061-3 0  9995
2 55140  87.9162   8.5715 0001946  82.8608 277.2745 13.17647893165799
ONEWEB-0533             
1 55141U 23004B   26154.58224103 -.00000246  00000+0 -71987-3 0  9996
2 55141  87.8960 353.3796 0002032  82.5239 277.6121 13.12443368166271
ONEWEB-0541             
1 55142U 23004C   26154.60147774 -.00000124  00000+0 -38684-3 0  9990
2 55142  87.8917  23.7606 0001819  97.4855 262.6480 13.11420220164162
ONEWEB-0543             
1 55143U 23004D   26154.58197213 -.00000030  00000+0 -10823-3 0  9992
2 55143  87.9161 338.1787 0001581  82.5042 277.6270 13.18688870167909
ONEWEB-0544             
1 55144U 23004E   26154.57523312 -.00000043  00000+0 -14166-3 0  9993
2 55144  87.9159 338.1798 0001560  92.4762 267.6549 13.18685689167908
ONEWEB-0560             
1 55145U 23004F   26154.56849244  .00000185  00000+0  43589-3 0  9994
2 55145  87.9167 338.1709 0001311  85.5007 274.6275 13.18685874167910
ONEWEB-0565             
1 55146U 23004G   26154.56173806  .00000089  00000+0  19354-3 0  9995
2 55146  87.9148 338.2004 0001779 104.3656 255.7673 13.18686832167903
ONEWEB-0567             
1 55147U 23004H   26154.55500098 -.00000035  00000+0 -12077-3 0  9990
2 55147  87.9171 338.1870 0001368  88.5037 271.6252 13.18685341167904
ONEWEB-0569             
1 55148U 23004J   26154.44850771  .00000286  00000+0  74764-3 0  9992
2 55148  87.8953 322.9553 0001027 113.2210 246.9028 13.13469394168373
ONEWEB-0570             
1 55149U 23004K   26154.54655567  .00000078  00000+0  16423-3 0  9997
2 55149  87.9158 338.1850 0002117  96.5523 263.5850 13.18688831167890
ONEWEB-0571             
1 55150U 23004L   26154.53981228  .00000028  00000+0  38973-4 0  9994
2 55150  87.9172 338.1869 0001526 134.1576 225.9682 13.18688225167902
